COSMOS 2433 (720)       
1 32275U 07052A   22358.86570453 -.00000043  00000+0  00000+0 0  9997
2 32275  66.0674 358.3509 0005252 255.2298 283.5909  2.13104217118029
COSMOS 2432 (719)       
1 32276U 07052B   22358.93256010 -.00000044  00000+0  00000+0 0  9997
2 32276  66.0813 358.4533 0011301 315.1792 222.6910  2.13103415118025
COSMOS 2434 (721)       
1 32393U 07065A   22358.54215946  .00000071  00000+0  00000+0 0  9990
2 32393  64.3576 234.9435 0003638  69.5342 111.2909  2.13103182116723
COSMOS 2436 (723)       
1 32395U 07065C   22358.40916457  .00000072  00000+0  00000+0 0  9993
2 32395  64.3662 235.0072 0016584   3.4745 211.0273  2.13102872116658
COSMOS 2456 (730)       
1 36111U 09070A   22359.02688326  .00000020  00000+0  00000+0 0  9994
2 36111  64.4070 114.5086 0001674 315.1186  40.4740  2.13099137101391
COSMOS 2457 (733)       
1 36112U 09070B   22358.35397823  .00000017  00000+0  00000+0 0  9995
2 36112  64.3901 114.4035 0006467 156.5256 171.6388  2.13101342101383
COSMOS 2460 (732)       
1 36402U 10007C   22358.55370804 -.00000042  00000+0  00000+0 0  9990
2 36402  65.9367 357.1207 0002413 266.6522 200.2354  2.13106370 99745
COSMOS 2476 (744)       
1 37867U 11064A   22358.66070215  .00000020  00000+0  00000+0 0  9990
2 37867  64.6925 115.9512 0021507 231.1241 110.6746  2.13101814 86738
COSMOS 2477 (745)       
1 37868U 11064B   22358.92114148  .00000022  00000+0  00000+0 0  9996
2 37868  64.6992 116.0091 0018712 231.4944 128.1235  2.13101653 86697
COSMOS 2475 (743)       
1 37869U 11064C   22359.40244418  .00000024  00000+0  00000+0 0  9997
2 37869  64.7064 116.0027 0022325 250.3019  76.7690  2.13101822 86710
COSMOS 2485 (747)       
1 39155U 13019A   22359.46988740  .00000025  00000+0  00000+0 0  9999
2 39155  64.8546 116.3929 0021943 227.0771  59.8971  2.13101841 75220
COSMOS 2492 (754)       
1 39620U 14012A   22358.57410406 -.00000043  00000+0  00000+0 0  9991
2 39620  65.8220 356.7742 0014339 313.4153  40.6620  2.13103244 68157
COSMOS 2500 (755)       
1 40001U 14032A   22358.99915419 -.00000045  00000+0  00000+0 0  9990
2 40001  65.7612 356.6068 0007873 220.5869 317.6899  2.13102455 66384
COSMOS 2501 (702K)      
1 40315U 14075A   22358.77209951  .00000068  00000+0  00000+0 0  9992
2 40315  63.6621 234.5128 0017434 207.3727 325.6373  2.13101405 62780
COSMOS 2514 (751)       
1 41330U 16008A   22358.99586683 -.00000045  00000+0  00000+0 0  9998
2 41330  65.5599 356.2499 0011480 224.6978 135.2314  2.13102614 53559
COSMOS 2516 (753)       
1 41554U 16032A   22357.24065775  .00000082  00000+0  00000+0 0  9994
2 41554  63.8883 234.8962 0013984 213.1736 146.8352  2.13106397 51129
COSMOS 2522 (752)       
1 42939U 17055A   22358.60987067  .00000069  00000+0  00000+0 0  9991
2 42939  64.1226 235.2998 0006336 244.3432 299.7791  2.13102139 40907
COSMOS 2527 (756)       
1 43508U 18053A   22359.35107759  .00000025  00000+0  00000+0 0  9990
2 43508  65.0173 116.4377 0008058 217.6111 207.1426  2.13102545 35219
COSMOS 2529 (757)       
1 43687U 18086A   22358.18826020  .00000074  00000+0  00000+0 0  9997
2 43687  64.3378 235.6801 0008441 270.9724 265.1925  2.13102188 32207
COSMOS 2534 (758)       
1 44299U 19030A   22358.48591164  .00000071  00000+0  00000+0 0  9995
2 44299  64.4101 235.5730 0011312 293.0569 245.8420  2.13101932 27852
COSMOS 2544 (759)       
1 44850U 19088A   22358.98328253  .00000023  00000+0  16595+1 0  9997
2 44850  65.0022 116.2970 0011471 250.0159 295.8822  2.13102279 23637
COSMOS 2545 (760)       
1 45358U 20018A   22358.61644988 -.00000045  00000+0  00000+0 0  9990
2 45358  64.8995 356.7165 0011621 250.8909 222.8359  2.13102768 21582
COSMOS 2547 (705K)      
1 46805U 20075A   22359.33777931  .00000061  00000+0  00000+0 0  9993
2 46805  64.6354 235.0244 0006099 245.8388 274.9233  2.13103006 16840
COSMOS 2557 (706K)      
1 52984U 22075A   22359.53104905 -.00000049  00000+0  10000-3 0  9999
2 52984  64.8062 358.8727 0013777 279.5390 266.6455  2.13101801  3640
COSMOS 2559 (707K)      
1 54031U 22130A   22359.46844411 -.00000048  00000+0  00000+0 0  9995
2 54031  64.7781 359.0107 0007567 232.8358 310.6300  2.13101380  1620
COSMOS 2564 (761)       
1 54377U 22161A   22359.26398519  .00000062  00000+0  00000+0 0  9998
2 54377  64.7749 235.0360 0007033 216.8745  19.8216  2.13102205   564
